STARLINK-33674          
1 63329U 25057Y   26134.97175387  .00012925  00000+0  47814-3 0  9990
2 63329  43.0037  16.5920 0000447 299.0387  61.0420 15.27596606 65919
YUNYAO-1 43             
1 63344U 25059A   26135.30334608  .00001894  00000+0  11783-3 0  9999
2 63344  97.6104 316.8495 0013053 267.0090  92.9646 15.10793564 63333
YUNYAO-1 44             
1 63345U 25059B   26135.29075250  .00001756  00000+0  10936-3 0  9999
2 63345  97.6091 316.7982 0015474 270.6311  89.3145 15.10816943 63335
YUNYAO-1 45             
1 63346U 25059C   26135.28229174  .00001656  00000+0  10345-3 0  9998
2 63346  97.6120 316.9620 0014475 270.1320  89.8251 15.10812149 63332
YUNYAO-1 46             
1 63347U 25059D   26135.31436161  .00001981  00000+0  12311-3 0  9995
2 63347  97.6115 316.8917 0010495 257.4008 102.6048 15.10791444 63336
YUNYAO-1 47             
1 63348U 25059E   26135.31429825  .00001965  00000+0  12143-3 0  9990
2 63348  97.6088 316.8958 0014492 271.1918  88.7651 15.10977532 63333
YUNYAO-1 48             
1 63349U 25059F   26135.29594758  .00001805  00000+0  11169-3 0  9996
2 63349  97.6097 316.9851 0013916 273.2097  86.7540 15.11044260 63337
LEMUR-2-UNTITLED-SC     
1 63351U 25061A   26135.16070498  .00002200  00000+0  12707-3 0  9997
2 63351  97.5620 110.7741 0019591  24.4715 335.7441 15.13226764 62594
LEMUR-2-ESPERANZA       
1 63352U 25061B   26135.13987052  .00002577  00000+0  14784-3 0  9992
2 63352  97.5627 110.8393 0019159  24.0340 336.1781 15.13318555 62598
LEMUR-2-KREMPEL-BRO2    
1 63353U 25061C   26135.24236658  .00002065  00000+0  11779-3 0  9997
2 63353  97.5674 111.4324 0019851  16.1697 344.0163 15.13747613 62625
LEMUR-2-THERMORAPTOR    
1 63354U 25061D   26134.36678766  .00002575  00000+0  14569-3 0  9996
2 63354  97.5678 110.6317 0019635  18.2559 341.9373 15.13817275 62499
LEMUR-2-NEUROSPICY      
1 63355U 25061E   26134.80366907  .00002828  00000+0  15925-3 0  9995
2 63355  97.5606 110.7181 0017542  21.0371 339.1578 15.13932581 62562
LEMUR-2-TILLINFINITY    
1 63356U 25061F   26134.78581928  .00002533  00000+0  14061-3 0  9998
2 63356  97.5592 110.9674 0018366   9.1252 351.0309 15.14522504 62584
LEMUR-2-KREMPEL-BRO1    
1 63357U 25061G   26135.15146727  .00002610  00000+0  14557-3 0  9991
2 63357  97.5592 111.2559 0019022   8.9450 351.2117 15.14328949 62630
LEMUR-2-LANGER2SPACE    
1 63358U 25061H   26135.23748331  .00002212  00000+0  12504-3 0  9998
2 63358  97.5598 111.1687 0017337  17.9987 342.1854 15.14027796 62633
TIANLIAN 2-04           
1 63361U 25062A   26134.97648425 -.00000125  00000+0  00000+0 0  9992
2 63361   4.4606 274.9171 0032312  11.0912  18.3417  1.00271976  4277
STARLINK-32840          
1 63363U 25063A   26135.13994990  .00006987  00000+0  24781-3 0  9992
2 63363  53.1589 100.9561 0001505  90.7631 269.3542 15.30197989 64950
STARLINK-32543          
1 63364U 25063B   26135.20420774  .00010682  00000+0  37227-3 0  9991
2 63364  53.1577 100.6420 0001210  89.0512 271.0627 15.30199561 64975
STARLINK-33741          
1 63365U 25063C   26135.19308525  .00029313  00000+0  68030-3 0  9996
2 63365  53.1595 101.9861 0001044 100.7628 259.3496 15.42167604 64961
STARLINK-33742          
1 63366U 25063D   26135.19429389  .00009857  00000+0  34446-3 0  9994
2 63366  53.1564 103.4072 0001163 109.2727 250.8400 15.30203489 64897
STARLINK-33734          
1 63367U 25063E   26135.21214462  .00013494  00000+0  46695-3 0  9993
2 63367  53.1578 113.4421 0001389 108.1059 252.0093 15.30196433 64755
STARLINK-33578          
1 63368U 25063F   26135.17054905  .00008811  00000+0  30926-3 0  9990
2 63368  53.1597 101.1328 0001411 114.6163 245.4985 15.30200656 64918
STARLINK-33626          
1 63369U 25063G   26135.18321449  .00011054  00000+0  38474-3 0  9991
2 63369  53.1578 101.2083 0001224  81.3116 278.8023 15.30203499 64929
STARLINK-33657          
1 63370U 25063H   26135.19112258  .00022506  00000+0  52485-3 0  9992
2 63370  53.1590 101.9702 0001095 120.4620 239.6494 15.42174572 64919
STARLINK-33648          
1 63371U 25063J   26135.28917038  .00011733  00000+0  40741-3 0  9994
2 63371  53.1587 103.2929 0001331  70.2414 289.8730 15.30218494 64951
STARLINK-33614          
1 63372U 25063K   26135.29907028  .00008140  00000+0  28668-3 0  9996
2 63372  53.1593 100.5126 0001345  91.3562 268.7593 15.30196672 64991
STARLINK-33617          
1 63373U 25063L   26135.29484915  .00008352  00000+0  29386-3 0  9995
2 63373  53.1586 100.4817 0001517  74.4599 285.6570 15.30194015 64940
STARLINK-33618          
1 63374U 25063M   26135.29168260  .00005405  00000+0  19450-3 0  9995
2 63374  53.1600 100.4609 0001346  87.4633 272.6522 15.30197084 64997
STARLINK-33621          
1 63375U 25063N   26135.29062789  .00007083  00000+0  25103-3 0  9991
2 63375  53.1604 100.4558 0001392  92.8282 267.2878 15.30199631 64945
STARLINK-33539          
1 63376U 25063P   26135.21952503  .00005497  00000+0  19759-3 0  9993
2 63376  53.1567 113.4836 0001004  88.3881 271.7235 15.30197912 64758
