OBJECT_NAME,OBJECT_ID,EPOCH,MEAN_MOTION,ECCENTRICITY,INCLINATION,RA_OF_ASC_NODE,ARG_OF_PERICENTER,MEAN_ANOMALY,EPHEMERIS_TYPE,CLASSIFICATION_TYPE,NORAD_CAT_ID,ELEMENT_SET_NO,REV_AT_EPOCH,BSTAR,MEAN_MOTION_DOT,MEAN_MOTION_DDOT
STARLINK-33674,2025-057Y,2026-05-14T23:19:19.534368,15.27596606,.0000447,43.0037,16.5920,299.0387,61.0420,0,U,63329,999,6591,.47813981E-3,.12925E-3,0
YUNYAO-1 43,2025-059A,2026-05-15T07:16:49.101312,15.10793564,.00130535,97.6104,316.8495,267.0090,92.9646,0,U,63344,999,6333,.11782854E-3,.1894E-4,0
YUNYAO-1 44,2025-059B,2026-05-15T06:58:41.016000,15.10816943,.0015474,97.6091,316.7982,270.6311,89.3145,0,U,63345,999,6333,.10935832E-3,.1756E-4,0
YUNYAO-1 45,2025-059C,2026-05-15T06:46:30.006336,15.10812149,.00144758,97.6120,316.9620,270.1320,89.8251,0,U,63346,999,6333,.10345034E-3,.1656E-4,0
YUNYAO-1 46,2025-059D,2026-05-15T07:32:40.843104,15.10791444,.00104955,97.6115,316.8917,257.4008,102.6048,0,U,63347,999,6333,.12310993E-3,.1981E-4,0
YUNYAO-1 47,2025-059E,2026-05-15T07:32:35.368800,15.10977532,.00144929,97.6088,316.8958,271.1918,88.7651,0,U,63348,999,6333,.12142534E-3,.1965E-4,0
YUNYAO-1 48,2025-059F,2026-05-15T07:06:09.870912,15.11044260,.00139162,97.6097,316.9851,273.2097,86.7540,0,U,63349,999,6333,.11169391E-3,.1805E-4,0
LEMUR-2-UNTITLED-SC,2025-061A,2026-05-15T03:51:24.910272,15.13226764,.00195914,97.5620,110.7741,24.4715,335.7441,0,U,63351,999,6259,.12706962E-3,.22E-4,0
LEMUR-2-ESPERANZA,2025-061B,2026-05-15T03:21:24.812928,15.13318555,.0019159,97.5627,110.8393,24.0340,336.1781,0,U,63352,999,6259,.14783783E-3,.2577E-4,0
LEMUR-2-KREMPEL-BRO2,2025-061C,2026-05-15T05:49:00.472512,15.13747613,.00198511,97.5674,111.4324,16.1697,344.0163,0,U,63353,999,6262,.11778721E-3,.2065E-4,0
LEMUR-2-THERMORAPTOR,2025-061D,2026-05-14T08:48:10.453824,15.13817275,.00196358,97.5678,110.6317,18.2559,341.9373,0,U,63354,999,6249,.14569283E-3,.2575E-4,0
LEMUR-2-NEUROSPICY,2025-061E,2026-05-14T19:17:17.007648,15.13932581,.00175425,97.5606,110.7181,21.0371,339.1578,0,U,63355,999,6256,.15924576E-3,.2828E-4,0
LEMUR-2-TILLINFINITY,2025-061F,2026-05-14T18:51:34.785792,15.14522504,.0018366,97.5592,110.9674,9.1252,351.0309,0,U,63356,999,6258,.14061388E-3,.2533E-4,0
LEMUR-2-KREMPEL-BRO1,2025-061G,2026-05-15T03:38:06.772128,15.14328949,.00190228,97.5592,111.2559,8.9450,351.2117,0,U,63357,999,6263,.14557137E-3,.261E-4,0
LEMUR-2-LANGER2SPACE,2025-061H,2026-05-15T05:41:58.557984,15.14027796,.00173377,97.5598,111.1687,17.9987,342.1854,0,U,63358,999,6263,.1250418E-3,.2212E-4,0
TIANLIAN 2-04,2025-062A,2026-05-14T23:26:08.239200,1.00271976,.00323123,4.4606,274.9171,11.0912,18.3417,0,U,63361,999,427,0,-.125E-5,0
STARLINK-32840,2025-063A,2026-05-15T03:21:31.671360,15.30197989,.00015052,53.1589,100.9561,90.7631,269.3542,0,U,63363,999,6495,.24781171E-3,.6987E-4,0
STARLINK-32543,2025-063B,2026-05-15T04:54:03.548736,15.30199561,.00012101,53.1577,100.6420,89.0512,271.0627,0,U,63364,999,6497,.37227419E-3,.10682E-3,0
STARLINK-33741,2025-063C,2026-05-15T04:38:02.565600,15.42167604,.00010448,53.1595,101.9861,100.7628,259.3496,0,U,63365,999,6496,.68030466E-3,.29313E-3,0
STARLINK-33742,2025-063D,2026-05-15T04:39:46.992096,15.30203489,.00011637,53.1564,103.4072,109.2727,250.8400,0,U,63366,999,6489,.34446113E-3,.9857E-4,0
STARLINK-33734,2025-063E,2026-05-15T05:05:29.295168,15.30196433,.00013899,53.1578,113.4421,108.1059,252.0093,0,U,63367,999,6475,.46694931E-3,.13494E-3,0
STARLINK-33578,2025-063F,2026-05-15T04:05:35.437920,15.30200656,.0001411,53.1597,101.1328,114.6163,245.4985,0,U,63368,999,6491,.30925593E-3,.8811E-4,0
STARLINK-33626,2025-063G,2026-05-15T04:23:49.731936,15.30203499,.0001224,53.1578,101.2083,81.3116,278.8023,0,U,63369,999,6492,.38473654E-3,.11054E-3,0
STARLINK-33657,2025-063H,2026-05-15T04:35:12.990912,15.42174572,.00010953,53.1590,101.9702,120.4620,239.6494,0,U,63370,999,6491,.52485453E-3,.22506E-3,0
STARLINK-33648,2025-063J,2026-05-15T06:56:24.320832,15.30218494,.0001331,53.1587,103.2929,70.2414,289.8730,0,U,63371,999,6495,.40741207E-3,.11733E-3,0
STARLINK-33614,2025-063K,2026-05-15T07:10:39.672192,15.30196672,.00013456,53.1593,100.5126,91.3562,268.7593,0,U,63372,999,6499,.28667987E-3,.814E-4,0
STARLINK-33617,2025-063L,2026-05-15T07:04:34.966560,15.30194015,.00015172,53.1586,100.4817,74.4599,285.6570,0,U,63373,999,6494,.29385576E-3,.8352E-4,0
STARLINK-33618,2025-063M,2026-05-15T07:00:01.376640,15.30197084,.0001346,53.1600,100.4609,87.4633,272.6522,0,U,63374,999,6499,.19449759E-3,.5405E-4,0
STARLINK-33621,2025-063N,2026-05-15T06:58:30.249696,15.30199631,.00013924,53.1604,100.4558,92.8282,267.2878,0,U,63375,999,6494,.25102813E-3,.7083E-4,0
STARLINK-33539,2025-063P,2026-05-15T05:16:06.962592,15.30197912,.00010045,53.1567,113.4836,88.3881,271.7235,0,U,63376,999,6475,.19759279E-3,.5497E-4,0
